1 43013U 17073A   26128.81096171  .00000069  00000+0  53759-4 0  9998
2 43013  98.7755  68.6272 0001864  56.0216 304.1136 14.19550360438887
